CCSDS_OMM_VERS = 2.0
CREATION_DATE  = 
ORIGINATOR     = 

OBJECT_NAME    = UNKNOWN
OBJECT_ID      = 
CENTER_NAME    = EARTH
REF_FRAME      = TEME
TIME_SYSTEM    = UTC
MEAN_ELEMENT_THEORY = SGP/SGP4

EPOCH          = 2026-03-10T01:26:26.509056
MEAN_MOTION    = 2.62672294
ECCENTRICITY   = .6890329
INCLINATION    = 9.2919
RA_OF_ASC_NODE = 296.2005
ARG_OF_PERICENTER = 171.4122
MEAN_ANOMALY   = 213.1207

EPHEMERIS_TYPE = 0
CLASSIFICATION_TYPE = U
NORAD_CAT_ID   = 84236
ELEMENT_SET_NO = 999
REV_AT_EPOCH   = 11627
BSTAR          = .64621E-2
MEAN_MOTION_DOT = .953E-5
MEAN_MOTION_DDOT = 0

CCSDS_OMM_VERS = 2.0
CREATION_DATE  = 
ORIGINATOR     = 

OBJECT_NAME    = UNKNOWN
OBJECT_ID      = 
CENTER_NAME    = EARTH
REF_FRAME      = TEME
TIME_SYSTEM    = UTC
MEAN_ELEMENT_THEORY = SGP/SGP4

EPOCH          = 2026-03-21T12:09:36.677664
MEAN_MOTION    = 6.22364903
ECCENTRICITY   = .4552022
INCLINATION    = 23.8337
RA_OF_ASC_NODE = 23.4978
ARG_OF_PERICENTER = 117.9925
MEAN_ANOMALY   = 295.0949

EPHEMERIS_TYPE = 0
CLASSIFICATION_TYPE = U
NORAD_CAT_ID   = 84292
ELEMENT_SET_NO = 999
REV_AT_EPOCH   = 23421
BSTAR          = .26949E-2
MEAN_MOTION_DOT = .4353E-4
MEAN_MOTION_DDOT = 0

CCSDS_OMM_VERS = 2.0
CREATION_DATE  = 
ORIGINATOR     = 

OBJECT_NAME    = UNKNOWN
OBJECT_ID      = 
CENTER_NAME    = EARTH
REF_FRAME      = TEME
TIME_SYSTEM    = UTC
MEAN_ELEMENT_THEORY = SGP/SGP4

EPOCH          = 2026-03-18T15:28:24.105216
MEAN_MOTION    = 12.67508390
ECCENTRICITY   = .0050508
INCLINATION    = 101.7205
RA_OF_ASC_NODE = 228.0430
ARG_OF_PERICENTER = 206.9317
MEAN_ANOMALY   = 172.6275

EPHEMERIS_TYPE = 0
CLASSIFICATION_TYPE = U
NORAD_CAT_ID   = 84406
ELEMENT_SET_NO = 999
REV_AT_EPOCH   = 6144
BSTAR          = .34936E-2
MEAN_MOTION_DOT = .627E-5
MEAN_MOTION_DDOT = 0

CCSDS_OMM_VERS = 2.0
CREATION_DATE  = 
ORIGINATOR     = 

OBJECT_NAME    = UNKNOWN
OBJECT_ID      = 
CENTER_NAME    = EARTH
REF_FRAME      = TEME
TIME_SYSTEM    = UTC
MEAN_ELEMENT_THEORY = SGP/SGP4

EPOCH          = 2026-03-21T01:48:29.292192
MEAN_MOTION    = 2.05801733
ECCENTRICITY   = .7215271
INCLINATION    = 19.4425
RA_OF_ASC_NODE = 293.5658
ARG_OF_PERICENTER = 114.6404
MEAN_ANOMALY   = 332.8664

EPHEMERIS_TYPE = 0
CLASSIFICATION_TYPE = U
NORAD_CAT_ID   = 84407
ELEMENT_SET_NO = 999
REV_AT_EPOCH   = 7789
BSTAR          = .56123E-2
MEAN_MOTION_DOT = -.317E-5
MEAN_MOTION_DDOT = 0

CCSDS_OMM_VERS = 2.0
CREATION_DATE  = 
ORIGINATOR     = 

OBJECT_NAME    = UNKNOWN
OBJECT_ID      = 
CENTER_NAME    = EARTH
REF_FRAME      = TEME
TIME_SYSTEM    = UTC
MEAN_ELEMENT_THEORY = SGP/SGP4

EPOCH          = 2026-03-19T06:04:12.733824
MEAN_MOTION    = 2.19861276
ECCENTRICITY   = .7119367
INCLINATION    = 18.0177
RA_OF_ASC_NODE = 126.1144
ARG_OF_PERICENTER = 81.6206
MEAN_ANOMALY   = 346.6757

EPHEMERIS_TYPE = 0
CLASSIFICATION_TYPE = U
NORAD_CAT_ID   = 84575
ELEMENT_SET_NO = 999
REV_AT_EPOCH   = 6758
BSTAR          = -.34439E-2
MEAN_MOTION_DOT = -.174E-5
MEAN_MOTION_DDOT = 0

CCSDS_OMM_VERS = 2.0
CREATION_DATE  = 
ORIGINATOR     = 

OBJECT_NAME    = UNKNOWN
OBJECT_ID      = 
CENTER_NAME    = EARTH
REF_FRAME      = TEME
TIME_SYSTEM    = UTC
MEAN_ELEMENT_THEORY = SGP/SGP4

EPOCH          = 2026-03-21T10:33:44.075808
MEAN_MOTION    = 3.00158204
ECCENTRICITY   = .657529
INCLINATION    = 2.0546
RA_OF_ASC_NODE = 184.9061
ARG_OF_PERICENTER = 168.0054
MEAN_ANOMALY   = 20.7286

EPHEMERIS_TYPE = 0
CLASSIFICATION_TYPE = U
NORAD_CAT_ID   = 84932
ELEMENT_SET_NO = 999
REV_AT_EPOCH   = 13474
BSTAR          = .4339E-2
MEAN_MOTION_DOT = .507E-5
MEAN_MOTION_DDOT = 0

CCSDS_OMM_VERS = 2.0
CREATION_DATE  = 
ORIGINATOR     = 

OBJECT_NAME    = UNKNOWN
OBJECT_ID      = 
CENTER_NAME    = EARTH
REF_FRAME      = TEME
TIME_SYSTEM    = UTC
MEAN_ELEMENT_THEORY = SGP/SGP4

EPOCH          = 2026-03-21T04:58:36.140736
MEAN_MOTION    = 14.41380586
ECCENTRICITY   = .0045756
INCLINATION    = 98.4359
RA_OF_ASC_NODE = 54.8791
ARG_OF_PERICENTER = 225.4221
MEAN_ANOMALY   = 150.1694

EPHEMERIS_TYPE = 0
CLASSIFICATION_TYPE = U
NORAD_CAT_ID   = 85004
ELEMENT_SET_NO = 999
REV_AT_EPOCH   = 64508
BSTAR          = .27957E-3
MEAN_MOTION_DOT = .873E-5
MEAN_MOTION_DDOT = 0

CCSDS_OMM_VERS = 2.0
CREATION_DATE  = 
ORIGINATOR     = 

OBJECT_NAME    = UNKNOWN
OBJECT_ID      = 
CENTER_NAME    = EARTH
REF_FRAME      = TEME
TIME_SYSTEM    = UTC
MEAN_ELEMENT_THEORY = SGP/SGP4

EPOCH          = 2026-03-17T10:15:07.131168
MEAN_MOTION    = 13.75282620
ECCENTRICITY   = .0026889
INCLINATION    = 99.2461
RA_OF_ASC_NODE = 300.4448
ARG_OF_PERICENTER = 5.2422
MEAN_ANOMALY   = 118.1978

EPHEMERIS_TYPE = 0
CLASSIFICATION_TYPE = U
NORAD_CAT_ID   = 85010
ELEMENT_SET_NO = 999
REV_AT_EPOCH   = 61693
BSTAR          = .10655E-2
MEAN_MOTION_DOT = .982E-5
MEAN_MOTION_DDOT = 0

CCSDS_OMM_VERS = 2.0
CREATION_DATE  = 
ORIGINATOR     = 

OBJECT_NAME    = UNKNOWN
OBJECT_ID      = 
CENTER_NAME    = EARTH
REF_FRAME      = TEME
TIME_SYSTEM    = UTC
MEAN_ELEMENT_THEORY = SGP/SGP4

EPOCH          = 2026-03-21T15:01:06.372480
MEAN_MOTION    = 14.62431692
ECCENTRICITY   = .0013904
INCLINATION    = 74.0494
RA_OF_ASC_NODE = 208.9478
ARG_OF_PERICENTER = 89.6986
MEAN_ANOMALY   = 270.5774

EPHEMERIS_TYPE = 0
CLASSIFICATION_TYPE = U
NORAD_CAT_ID   = 85015
ELEMENT_SET_NO = 999
REV_AT_EPOCH   = 65706
BSTAR          = .12083E-3
MEAN_MOTION_DOT = .582E-5
MEAN_MOTION_DDOT = 0

CCSDS_OMM_VERS = 2.0
CREATION_DATE  = 
ORIGINATOR     = 

OBJECT_NAME    = UNKNOWN
OBJECT_ID      = 
CENTER_NAME    = EARTH
REF_FRAME      = TEME
TIME_SYSTEM    = UTC
MEAN_ELEMENT_THEORY = SGP/SGP4

EPOCH          = 2026-03-21T08:04:37.079328
MEAN_MOTION    = 14.80819687
ECCENTRICITY   = .0001466
INCLINATION    = 99.8407
RA_OF_ASC_NODE = 122.4842
ARG_OF_PERICENTER = 117.9641
MEAN_ANOMALY   = 302.6244

EPHEMERIS_TYPE = 0
CLASSIFICATION_TYPE = U
NORAD_CAT_ID   = 85023
ELEMENT_SET_NO = 999
REV_AT_EPOCH   = 64339
BSTAR          = .49417E-2
MEAN_MOTION_DOT = .38262E-3
MEAN_MOTION_DDOT = 0

CCSDS_OMM_VERS = 2.0
CREATION_DATE  = 
ORIGINATOR     = 

OBJECT_NAME    = UNKNOWN
OBJECT_ID      = 
CENTER_NAME    = EARTH
REF_FRAME      = TEME
TIME_SYSTEM    = UTC
MEAN_ELEMENT_THEORY = SGP/SGP4

EPOCH          = 2026-03-20T16:18:11.063808
MEAN_MOTION    = 13.74290935
ECCENTRICITY   = .0169476
INCLINATION    = 66.0405
RA_OF_ASC_NODE = 221.6703
ARG_OF_PERICENTER = 137.8505
MEAN_ANOMALY   = 223.5737

EPHEMERIS_TYPE = 0
CLASSIFICATION_TYPE = U
NORAD_CAT_ID   = 85027
ELEMENT_SET_NO = 999
REV_AT_EPOCH   = 61807
BSTAR          = .21448E-3
MEAN_MOTION_DOT = .146E-5
MEAN_MOTION_DDOT = 0

CCSDS_OMM_VERS = 2.0
CREATION_DATE  = 
ORIGINATOR     = 

OBJECT_NAME    = UNKNOWN
OBJECT_ID      = 
CENTER_NAME    = EARTH
REF_FRAME      = TEME
TIME_SYSTEM    = UTC
MEAN_ELEMENT_THEORY = SGP/SGP4

EPOCH          = 2026-03-21T05:20:33.467712
MEAN_MOTION    = 13.46936531
ECCENTRICITY   = .011459
INCLINATION    = 102.1729
RA_OF_ASC_NODE = 71.3507
ARG_OF_PERICENTER = 152.9642
MEAN_ANOMALY   = 207.7512

EPHEMERIS_TYPE = 0
CLASSIFICATION_TYPE = U
NORAD_CAT_ID   = 85047
ELEMENT_SET_NO = 999
REV_AT_EPOCH   = 58990
BSTAR          = .1925E-1
MEAN_MOTION_DOT = .12105E-3
MEAN_MOTION_DDOT = 0

