UNKNOWN                 
1 84236U          26069.06002904  .00000953  00000+0  64621-2 0  9994
2 84236   9.2919 296.2005 6890329 171.4122 213.1207  2.62672294116277
UNKNOWN                 
1 84292U          26080.50667451  .00004353  00000+0  26949-2 0  9991
2 84292  23.8337  23.4978 4552022 117.9925 295.0949  6.22364903234215
UNKNOWN                 
1 84406U          26077.64472344  .00000627  00000+0  34936-2 0  9999
2 84406 101.7205 228.0430 0050508 206.9317 172.6275 12.67508390 61441
UNKNOWN                 
1 84407U          26080.07533903 -.00000317  00000+0  56123-2 0  9999
2 84407  19.4425 293.5658 7215271 114.6404 332.8664  2.05801733 77895
UNKNOWN                 
1 84575U          26078.25292516 -.00000174  00000+0 -34439-2 0  9992
2 84575  18.0177 126.1144 7119367  81.6206 346.6757  2.19861276 67587
UNKNOWN                 
1 84932U          26080.44009347  .00000507  00000+0  43390-2 0  9995
2 84932   2.0546 184.9061 6575290 168.0054  20.7286  3.00158204134749
UNKNOWN                 
1 85004U          26080.20736274  .00000873  00000+0  27957-3 0  9994
2 85004  98.4359  54.8791 0045756 225.4221 150.1694 14.41380586645085
UNKNOWN                 
1 85010U          26076.42716587  .00000982  00000+0  10655-2 0  9992
2 85010  99.2461 300.4448 0026889   5.2422 118.1978 13.75282620616934
UNKNOWN                 
1 85015U          26080.62576820  .00000582  00000+0  12083-3 0  9992
2 85015  74.0494 208.9478 0013904  89.6986 270.5774 14.62431692657064
UNKNOWN                 
1 85023U          26080.33654027  .00038262  00000+0  49417-2 0  9991
2 85023  99.8407 122.4842 0001466 117.9641 302.6244 14.80819687643394
UNKNOWN                 
1 85027U          26079.67929472  .00000146  00000+0  21448-3 0  9994
2 85027  66.0405 221.6703 0169476 137.8505 223.5737 13.74290935618072
UNKNOWN                 
1 85047U          26080.22260958  .00012105  00000+0  19250-1 0  9990
2 85047 102.1729  71.3507 0114590 152.9642 207.7512 13.46936531589906
